{"type":"Feature","properties":{"id":"country-tj","name_ru":"Таджикистан","name_tg":"Тоҷикистон","resolution":"medium","source":"https://download.geofabrik.de/asia/tajikistan.poly","license":"ODbL-1.0","attribution":"© OpenStreetMap contributors, Geofabrik","bbox":[67.3201,36.66374,75.16571,41.05502]},"geometry":{"type":"Polygon","coordinates":[[[67.3201,39.31411],[67.45811,39.32899],[67.45949,39.38473],[67.38327,39.52682],[67.44163,39.58294],[67.70119,39.66861],[67.78496,39.66491],[68.17189,39.56831],[68.40189,39.54888],[68.53615,39.59034],[68.59657,39.65593],[68.57391,39.72514],[68.62541,39.86337],[68.81761,39.88991],[68.68242,40.09476],[68.63228,40.06021],[68.51898,40.11431],[68.52447,40.15001],[68.78265,40.21192],[68.81699,40.19304],[68.86093,40.21454],[69.03877,40.23813],[69.28837,40.20222],[69.28322,40.24652],[69.24882,40.26202],[69.24271,40.30955],[69.30141,40.28922],[69.32751,40.33111],[69.19807,40.54929],[69.2609,40.58163],[69.32991,40.65017],[69.31995,40.70355],[69.35707,40.74218],[69.3433,40.77846],[69.49676,40.81563],[69.57745,40.75376],[69.58671,40.71031],[69.65607,40.67335],[69.77546,40.70011],[70.10813,40.78802],[70.11372,40.82108],[70.32417,40.90573],[70.36812,41.0198],[70.44777,41.05502],[70.57205,41.02446],[70.68478,40.91387],[70.80482,40.72033],[70.73874,40.65264],[70.70118,40.65442],[70.59162,40.55998],[70.52467,40.54642],[70.48745,40.50037],[70.33374,40.44648],[70.38123,40.39102],[70.48458,40.35592],[70.56305,40.35811],[70.58887,40.33869],[70.56672,40.31592],[70.63385,40.18243],[70.75865,40.19315],[70.91228,40.24756],[70.89203,40.18648],[70.83134,40.15569],[70.82299,40.1797],[70.80983,40.17498],[70.78491,40.11694],[70.65479,40.09882],[70.64621,40.0192],[70.76637,39.85916],[70.62286,39.76685],[70.47661,39.87286],[70.47146,39.94765],[70.59025,40.01289],[70.16624,40.13663],[69.99355,40.22633],[69.57436,40.10092],[69.53123,39.96984],[69.55101,39.93133],[69.42844,39.91737],[69.36802,39.98343],[69.33678,39.87865],[69.27773,39.81434],[69.41437,39.58135],[69.69795,39.61204],[70.11886,39.60198],[70.24246,39.58294],[70.5336,39.63742],[71.51275,39.63108],[71.75995,39.48073],[71.87118,39.3635],[73.4436,39.4998],[73.64685,39.50192],[73.89953,38.9466],[73.85902,38.69033],[74.1481,38.67961],[74.70772,38.44122],[74.81895,38.20689],[74.92538,38.03944],[75.16571,37.40944],[75.13756,37.30902],[74.87732,37.209],[74.79355,37.33905],[74.28749,37.37834],[74.22294,37.31175],[73.82675,37.20354],[73.59673,37.24181],[73.61046,37.42853],[73.1765,37.39307],[73.0965,37.31666],[72.9578,37.28334],[72.86442,37.22431],[72.81361,37.22103],[72.67387,37.01599],[72.34291,36.97431],[71.84612,36.67778],[71.66863,36.66374],[71.55516,36.76392],[71.4271,37.0586],[71.45233,37.21516],[71.48443,37.27706],[71.48872,37.37043],[71.47156,37.40344],[71.51499,37.47949],[71.48941,37.53559],[71.53537,37.7125],[71.52393,37.76505],[71.58381,37.81778],[71.32564,37.88271],[71.29485,37.91401],[71.24565,37.92104],[71.28015,38.04485],[71.30682,38.06139],[71.34745,38.15332],[71.25021,38.30545],[70.9053,38.43351],[70.87379,38.46289],[70.85784,38.43554],[70.65357,38.34378],[70.61623,38.3431],[70.63207,38.28603],[70.50923,38.16293],[70.50986,38.1181],[70.43541,38.09066],[70.27113,37.93269],[70.19419,37.91046],[70.19082,37.85132],[70.2837,37.81867],[70.32965,37.69765],[70.25247,37.5854],[70.17414,37.51844],[69.95604,37.56071],[69.52423,37.56934],[69.3996,37.43779],[69.38013,37.3836],[69.48303,37.26176],[69.40235,37.15758],[69.31776,37.11094],[69.24356,37.09092],[69.12392,37.15471],[69.0144,37.26094],[68.9514,37.29058],[68.92479,37.26613],[68.60388,37.19143],[68.41433,37.09767],[68.29102,37.00776],[68.01189,36.91998],[67.9074,37.01056],[67.76814,37.0938],[67.79011,37.21201],[67.78633,37.42007],[67.82341,37.55057],[67.85362,37.63843],[68.03181,37.74764],[68.13206,37.93824],[68.22544,37.93905],[68.26595,37.92064],[68.29102,38.01916],[68.36522,38.08083],[68.39745,38.19071],[68.29617,38.24789],[68.14785,38.37531],[68.05756,38.39146],[68.10562,38.46999],[68.05103,38.56615],[68.05206,38.71927],[68.09189,38.73507],[68.05927,38.80226],[68.09257,39.00585],[67.68539,38.99144],[67.60437,39.16893],[67.32697,39.22587],[67.3201,39.31411]]]}}
